{
  "type": "FeatureCollection",
  "features": [
    {
      "type": "Feature",
      "properties": {
        "norad_id": 32093,
        "name": "FENGYUN 1C DEB",
        "group": "fengyun-1c-debris",
        "lat": 70.97028538883309,
        "lon": 167.50573943656883,
        "alt_km": 735.6328283745397,
        "timestamp": "2025-12-07T22:37:43.365427+00:00",
        "meta_object_name": "FENGYUN 1C DEB",
        "meta_object_id": "1999-025CQK",
        "meta_epoch": "2025-12-03T01:21:54.068256",
        "meta_mean_motion": 14.37564679,
        "meta_eccentricity": 0.00798444,
        "meta_inclination": 98.9206,
        "meta_ra_of_asc_node": 189.5281,
        "meta_arg_of_pericenter": 21.9826,
        "meta_mean_anomaly": 338.4753,
        "meta_ephemeris_type": 0,
        "meta_classification_type": "U",
        "meta_norad_cat_id": 32093,
        "meta_element_set_no": 999,
        "meta_rev_at_epoch": 96378,
        "meta_bstar": 0.00052363657,
        "meta_mean_motion_dot": 1.581e-05,
        "meta_mean_motion_ddot": 0,
        "tle_line1": "1 32093U 99025CQK 25337.05687579  .00001581  00000+0  52364-3 0  9996",
        "tle_line2": "2 32093  98.9206 189.5281 0079844  21.9826 338.4753 14.37564679963785"
      },
      "geometry": {
        "type": "Point",
        "coordinates": [
          167.50573943656883,
          70.97028538883309
        ]
      }
    },
    {
      "type": "Feature",
      "properties": {
        "norad_id": 32094,
        "name": "FENGYUN 1C DEB",
        "group": "fengyun-1c-debris",
        "lat": -36.695746889638556,
        "lon": -20.930586663975497,
        "alt_km": 844.2763596162758,
        "timestamp": "2025-12-07T22:37:43.365438+00:00",
        "meta_object_name": "FENGYUN 1C DEB",
        "meta_object_id": "1999-025CQL",
        "meta_epoch": "2025-12-06T05:57:03.520224",
        "meta_mean_motion": 14.10713332,
        "meta_eccentricity": 0.00341806,
        "meta_inclination": 98.7429,
        "meta_ra_of_asc_node": 330.8352,
        "meta_arg_of_pericenter": 287.5059,
        "meta_mean_anomaly": 72.2378,
        "meta_ephemeris_type": 0,
        "meta_classification_type": "U",
        "meta_norad_cat_id": 32094,
        "meta_element_set_no": 999,
        "meta_rev_at_epoch": 94273,
        "meta_bstar": 0.00070207748,
        "meta_mean_motion_dot": 1.218e-05,
        "meta_mean_motion_ddot": 0,
        "tle_line1": "1 32094U 99025CQL 25340.24795741  .00001218  00000+0  70208-3 0  9997",
        "tle_line2": "2 32094  98.7429 330.8352 0034180 287.5059  72.2378 14.10713332942734"
      },
      "geometry": {
        "type": "Point",
        "coordinates": [
          -20.930586663975497,
          -36.695746889638556
        ]
      }
    },
    {
      "type": "Feature",
      "properties": {
        "norad_id": 32095,
        "name": "FENGYUN 1C DEB",
        "group": "fengyun-1c-debris",
        "lat": 41.59194596931072,
        "lon": -10.056861172558921,
        "alt_km": 809.4062377821692,
        "timestamp": "2025-12-07T22:37:43.365448+00:00",
        "meta_object_name": "FENGYUN 1C DEB",
        "meta_object_id": "1999-025CQM",
        "meta_epoch": "2025-12-01T18:53:30.579936",
        "meta_mean_motion": 14.16020076,
        "meta_eccentricity": 0.00791206,
        "meta_inclination": 98.6419,
        "meta_ra_of_asc_node": 351.7287,
        "meta_arg_of_pericenter": 123.2072,
        "meta_mean_anomaly": 237.6721,
        "meta_ephemeris_type": 0,
        "meta_classification_type": "U",
        "meta_norad_cat_id": 32095,
        "meta_element_set_no": 999,
        "meta_rev_at_epoch": 94662,
        "meta_bstar": 0.00029755138,
        "meta_mean_motion_dot": 5.63e-06,
        "meta_mean_motion_ddot": 0,
        "tle_line1": "1 32095U 99025CQM 25335.78715949  .00000563  00000+0  29755-3 0  9996",
        "tle_line2": "2 32095  98.6419 351.7287 0079120 123.2072 237.6721 14.16020076946629"
      },
      "geometry": {
        "type": "Point",
        "coordinates": [
          -10.056861172558921,
          41.59194596931072
        ]
      }
    },
    {
      "type": "Feature",
      "properties": {
        "norad_id": 32096,
        "name": "FENGYUN 1C DEB",
        "group": "fengyun-1c-debris",
        "lat": -75.94573676315629,
        "lon": 50.73042825416589,
        "alt_km": 995.0612628098716,
        "timestamp": "2025-12-07T22:37:43.365458+00:00",
        "meta_object_name": "FENGYUN 1C DEB",
        "meta_object_id": "1999-025CQN",
        "meta_epoch": "2025-12-07T00:33:45.921888",
        "meta_mean_motion": 13.90161983,
        "meta_eccentricity": 0.01346151,
        "meta_inclination": 99.0755,
        "meta_ra_of_asc_node": 10.1543,
        "meta_arg_of_pericenter": 155.2914,
        "meta_mean_anomaly": 205.4773,
        "meta_ephemeris_type": 0,
        "meta_classification_type": "U",
        "meta_norad_cat_id": 32096,
        "meta_element_set_no": 999,
        "meta_rev_at_epoch": 92782,
        "meta_bstar": 0.002229721,
        "meta_mean_motion_dot": 2.924e-05,
        "meta_mean_motion_ddot": 0,
        "tle_line1": "1 32096U 99025CQN 25341.02344817  .00002924  00000+0  22297-2 0  9999",
        "tle_line2": "2 32096  99.0755  10.1543 0134615 155.2914 205.4773 13.90161983927825"
      },
      "geometry": {
        "type": "Point",
        "coordinates": [
          50.73042825416589,
          -75.94573676315629
        ]
      }
    },
    {
      "type": "Feature",
      "properties": {
        "norad_id": 32098,
        "name": "FENGYUN 1C DEB",
        "group": "fengyun-1c-debris",
        "lat": 17.412126095537456,
        "lon": 157.23536702935323,
        "alt_km": 700.6328272400979,
        "timestamp": "2025-12-07T22:37:43.365468+00:00",
        "meta_object_name": "FENGYUN 1C DEB",
        "meta_object_id": "1999-025CQQ",
        "meta_epoch": "2025-12-05T17:27:50.370048",
        "meta_mean_motion": 14.20242824,
        "meta_eccentricity": 0.01956147,
        "meta_inclination": 98.6123,
        "meta_ra_of_asc_node": 332.353,
        "meta_arg_of_pericenter": 140.0272,
        "meta_mean_anomaly": 221.5494,
        "meta_ephemeris_type": 0,
        "meta_classification_type": "U",
        "meta_norad_cat_id": 32098,
        "meta_element_set_no": 999,
        "meta_rev_at_epoch": 64128,
        "meta_bstar": 0.00042722524,
        "meta_mean_motion_dot": 1.063e-05,
        "meta_mean_motion_ddot": 0,
        "tle_line1": "1 32098U 99025CQQ 25339.72766632  .00001063  00000+0  42723-3 0  9998",
        "tle_line2": "2 32098  98.6123 332.3530 0195614 140.0272 221.5494 14.20242824641281"
      },
      "geometry": {
        "type": "Point",
        "coordinates": [
          157.23536702935323,
          17.412126095537456
        ]
      }
    },
    {
      "type": "Feature",
      "properties": {
        "norad_id": 32099,
        "name": "FENGYUN 1C DEB",
        "group": "fengyun-1c-debris",
        "lat": 55.612845452406034,
        "lon": -58.0025196360859,
        "alt_km": 1066.4750228887006,
        "timestamp": "2025-12-07T22:37:43.365478+00:00",
        "meta_object_name": "FENGYUN 1C DEB",
        "meta_object_id": "1999-025CQR",
        "meta_epoch": "2025-12-03T04:33:36.004320",
        "meta_mean_motion": 13.91678631,
        "meta_eccentricity": 0.03436256,
        "meta_inclination": 98.2796,
        "meta_ra_of_asc_node": 310.028,
        "meta_arg_of_pericenter": 301.742,
        "meta_mean_anomaly": 72.5014,
        "meta_ephemeris_type": 0,
        "meta_classification_type": "U",
        "meta_norad_cat_id": 32099,
        "meta_element_set_no": 999,
        "meta_rev_at_epoch": 64555,
        "meta_bstar": 0.0022629905,
        "meta_mean_motion_dot": 4.614e-05,
        "meta_mean_motion_ddot": 0,
        "tle_line1": "1 32099U 99025CQR 25337.19000005  .00004614  00000+0  22630-2 0  9992",
        "tle_line2": "2 32099  98.2796 310.0280 0343625 301.7420  72.5014 13.91678631645559"
      },
      "geometry": {
        "type": "Point",
        "coordinates": [
          -58.0025196360859,
          55.612845452406034
        ]
      }
    },
    {
      "type": "Feature",
      "properties": {
        "norad_id": 32101,
        "name": "FENGYUN 1C DEB",
        "group": "fengyun-1c-debris",
        "lat": -30.599660779323607,
        "lon": -113.55609694565547,
        "alt_km": 873.0384786209543,
        "timestamp": "2025-12-07T22:37:43.365489+00:00",
        "meta_object_name": "FENGYUN 1C DEB",
        "meta_object_id": "1999-025CQT",
        "meta_epoch": "2025-12-06T10:47:52.006272",
        "meta_mean_motion": 14.01591464,
        "meta_eccentricity": 0.0121405,
        "meta_inclination": 99.0309,
        "meta_ra_of_asc_node": 239.5694,
        "meta_arg_of_pericenter": 256.3658,
        "meta_mean_anomaly": 102.3963,
        "meta_ephemeris_type": 0,
        "meta_classification_type": "U",
        "meta_norad_cat_id": 32101,
        "meta_element_set_no": 999,
        "meta_rev_at_epoch": 93094,
        "meta_bstar": 0.0037079326,
        "meta_mean_motion_dot": 5.945e-05,
        "meta_mean_motion_ddot": 0,
        "tle_line1": "1 32101U 99025CQT 25340.44990748  .00005945  00000+0  37079-2 0  9991",
        "tle_line2": "2 32101  99.0309 239.5694 0121405 256.3658 102.3963 14.01591464930949"
      },
      "geometry": {
        "type": "Point",
        "coordinates": [
          -113.55609694565547,
          -30.599660779323607
        ]
      }
    }
  ]
}